{
  "norad_id": 56890,
  "name": "STARLINK-5528",
  "history": [
    {
      "epoch": "2026-03-28T22:00:01.999584Z",
      "apogee_km": 533.7118749041529,
      "perigee_km": 531.9031425073345,
      "latitude_deg": 37.93214192441707,
      "longitude_deg": -123.89420076396974,
      "height_km": 535.6195280809808,
      "semi_major_axis_km": 6910.944508705743,
      "eccentricity": 0.00013086,
      "inclination_deg": 42.9999,
      "raan_deg": 336.2224,
      "arg_perigee_deg": 276.173,
      "mean_anomaly_deg": 147.7789,
      "mean_motion_rev_day": 15.11111996
    },
    {
      "epoch": "2026-03-29T04:00:01.999584Z",
      "apogee_km": 534.1258324037472,
      "perigee_km": 531.8313420287905,
      "latitude_deg": -9.883387285316818,
      "longitude_deg": 77.55135922937866,
      "height_km": 533.951974892749,
      "semi_major_axis_km": 6911.115587216268,
      "eccentricity": 0.000166,
      "inclination_deg": 43.002,
      "raan_deg": 334.8441,
      "arg_perigee_deg": 287.8465,
      "mean_anomaly_deg": 57.7284,
      "mean_motion_rev_day": 15.11055887
    },
    {
      "epoch": "2026-03-30T04:00:01.999584Z",
      "apogee_km": 534.1291138174429,
      "perigee_km": 531.8346223532371,
      "latitude_deg": 21.08150175457259,
      "longitude_deg": 106.04307469951071,
      "height_km": 532.7867162396411,
      "semi_major_axis_km": 6911.118868085339,
      "eccentricity": 0.000166,
      "inclination_deg": 43.0001,
      "raan_deg": 329.3383,
      "arg_perigee_deg": 283.3152,
      "mean_anomaly_deg": 108.3885,
      "mean_motion_rev_day": 15.11054811
    },
    {
      "epoch": "2026-03-30T06:00:02.000160Z",
      "apogee_km": 534.0572613785653,
      "perigee_km": 531.7549164839193,
      "latitude_deg": 33.837308951127824,
      "longitude_deg": -174.41337897346202,
      "height_km": 535.2095477825474,
      "semi_major_axis_km": 6911.043088931242,
      "eccentricity": 0.00016657,
      "inclination_deg": 43.0002,
      "raan_deg": 328.8784,
      "arg_perigee_deg": 282.0102,
      "mean_anomaly_deg": 203.5329,
      "mean_motion_rev_day": 15.11079664
    },
    {
      "epoch": "2026-03-30T14:00:03.000384Z",
      "apogee_km": 534.0596393762171,
      "perigee_km": 531.8362051350286,
      "latitude_deg": 25.513094803467137,
      "longitude_deg": 78.46017025328331,
      "height_km": 533.6342020199023,
      "semi_major_axis_km": 6911.084922255623,
      "eccentricity": 0.00016086,
      "inclination_deg": 43.0,
      "raan_deg": 327.0419,
      "arg_perigee_deg": 273.8377,
      "mean_anomaly_deg": 227.1661,
      "mean_motion_rev_day": 15.11065944
    },
    {
      "epoch": "2026-03-30T22:00:00.999936Z",
      "apogee_km": 533.9470990590698,
      "perigee_km": 531.908887771212,
      "latitude_deg": 15.983632741031228,
      "longitude_deg": -30.884161798960275,
      "height_km": 532.5872685441113,
      "semi_major_axis_km": 6911.064993415141,
      "eccentricity": 0.00014746,
      "inclination_deg": 42.9997,
      "raan_deg": 325.2087,
      "arg_perigee_deg": 279.4652,
      "mean_anomaly_deg": 236.7954,
      "mean_motion_rev_day": 15.1107248
    },
    {
      "epoch": "2026-03-31T20:00:01.999008Z",
      "apogee_km": 533.880653967658,
      "perigee_km": 531.9966947388293,
      "latitude_deg": 40.41770803234176,
      "longitude_deg": -54.314420836926374,
      "height_km": 536.4101158410137,
      "semi_major_axis_km": 6911.075674353243,
      "eccentricity": 0.0001363,
      "inclination_deg": 42.9995,
      "raan_deg": 320.1612,
      "arg_perigee_deg": 272.3421,
      "mean_anomaly_deg": 196.2651,
      "mean_motion_rev_day": 15.11068977
    },
    {
      "epoch": "2026-04-01T00:16:54.162336Z",
      "apogee_km": 533.8657391444867,
      "perigee_km": 532.0601451735993,
      "latitude_deg": -2.6768314484464656e-05,
      "longitude_deg": 125.56991277202499,
      "height_km": 532.5426487407268,
      "semi_major_axis_km": 6911.099942159043,
      "eccentricity": 0.00013063,
      "inclination_deg": 43.0003,
      "raan_deg": 319.1765,
      "arg_perigee_deg": 282.7074,
      "mean_anomaly_deg": 77.3625,
      "mean_motion_rev_day": 15.11061018
    },
    {
      "epoch": "2026-04-02T20:42:06.766848Z",
      "apogee_km": 533.8527792307605,
      "perigee_km": 532.002548998883,
      "latitude_deg": 6.120433890689409e-05,
      "longitude_deg": 167.25151813777705,
      "height_km": 532.7242748223321,
      "semi_major_axis_km": 6911.064664114821,
      "eccentricity": 0.00013386,
      "inclination_deg": 43.0009,
      "raan_deg": 308.9848,
      "arg_perigee_deg": 268.8706,
      "mean_anomaly_deg": 91.1987,
      "mean_motion_rev_day": 15.11072588
    },
    {
      "epoch": "2026-04-03T14:09:10.458432Z",
      "apogee_km": 534.3379975695298,
      "perigee_km": 531.5403939254902,
      "latitude_deg": 9.989075403910725e-07,
      "longitude_deg": -99.23371576499143,
      "height_km": 533.440009561952,
      "semi_major_axis_km": 6911.07619574751,
      "eccentricity": 0.0002024,
      "inclination_deg": 43.0038,
      "raan_deg": 304.9817,
      "arg_perigee_deg": 121.2386,
      "mean_anomaly_deg": 238.8658,
      "mean_motion_rev_day": 15.11068806
    },
    {
      "epoch": "2026-04-03T23:40:17.987520Z",
      "apogee_km": 533.88033297316,
      "perigee_km": 532.0360381119463,
      "latitude_deg": -5.680795650678717e-05,
      "longitude_deg": 115.40892985336406,
      "height_km": 532.6809450769467,
      "semi_major_axis_km": 6911.095185542553,
      "eccentricity": 0.00013343,
      "inclination_deg": 43.0007,
      "raan_deg": 302.7967,
      "arg_perigee_deg": 273.4575,
      "mean_anomaly_deg": 86.6117,
      "mean_motion_rev_day": 15.11062578
    },
    {
      "epoch": "2026-04-05T13:44:46.140864Z",
      "apogee_km": 533.4230049135631,
      "perigee_km": 532.5024464301032,
      "latitude_deg": 3.3229289744632695e-05,
      "longitude_deg": -106.00554531778673,
      "height_km": 532.2797673961251,
      "semi_major_axis_km": 6911.099725671833,
      "eccentricity": 6.66e-05,
      "inclination_deg": 42.9959,
      "raan_deg": 294.0631,
      "arg_perigee_deg": 3.1764,
      "mean_anomaly_deg": 356.9086,
      "mean_motion_rev_day": 15.11061089
    },
    {
      "epoch": "2026-04-05T13:44:46.141728Z",
      "apogee_km": 533.4232813575518,
      "perigee_km": 532.5021699861145,
      "latitude_deg": 3.305901746028473e-05,
      "longitude_deg": -106.00554910925928,
      "height_km": 532.2794914148081,
      "semi_major_axis_km": 6911.099725671833,
      "eccentricity": 6.664e-05,
      "inclination_deg": 42.9959,
      "raan_deg": 294.0631,
      "arg_perigee_deg": 3.1764,
      "mean_anomaly_deg": 356.9086,
      "mean_motion_rev_day": 15.11061089
    },
    {
      "epoch": "2026-04-07T13:20:22.048800Z",
      "apogee_km": 533.981565381916,
      "perigee_km": 531.9360192493059,
      "latitude_deg": -4.7528921932005814e-06,
      "longitude_deg": -112.78089480260736,
      "height_km": 532.7841806714384,
      "semi_major_axis_km": 6911.09579231561,
      "eccentricity": 0.00014799,
      "inclination_deg": 43.0011,
      "raan_deg": 283.142,
      "arg_perigee_deg": 267.3734,
      "mean_anomaly_deg": 92.6942,
      "mean_motion_rev_day": 15.11062379
    },
    {
      "epoch": "2026-04-07T19:41:06.659808Z",
      "apogee_km": 533.9502236532935,
      "perigee_km": 531.9335708310782,
      "latitude_deg": 4.266652869781931e-05,
      "longitude_deg": 150.3166661156624,
      "height_km": 532.7547199487914,
      "semi_major_axis_km": 6911.078897242186,
      "eccentricity": 0.0001459,
      "inclination_deg": 43.0008,
      "raan_deg": 281.686,
      "arg_perigee_deg": 268.0473,
      "mean_anomaly_deg": 92.0206,
      "mean_motion_rev_day": 15.1106792
    },
    {
      "epoch": "2026-04-08T13:08:11.333760Z",
      "apogee_km": 534.1287313189378,
      "perigee_km": 531.8614653227614,
      "latitude_deg": 5.758827763775875e-05,
      "longitude_deg": -116.1745943510917,
      "height_km": 533.2387012482602,
      "semi_major_axis_km": 6911.132098320849,
      "eccentricity": 0.00016403,
      "inclination_deg": 43.0043,
      "raan_deg": 277.6809,
      "arg_perigee_deg": 245.7957,
      "mean_anomaly_deg": 114.2718,
      "mean_motion_rev_day": 15.11050472
    },
    {
      "epoch": "2026-04-09T19:16:44.190336Z",
      "apogee_km": 533.8433139006802,
      "perigee_km": 532.047676446784,
      "latitude_deg": -1.5726209467558453e-05,
      "longitude_deg": 143.53691448377845,
      "height_km": 532.8060609784154,
      "semi_major_axis_km": 6911.082495173731,
      "eccentricity": 0.00012991,
      "inclination_deg": 43.0001,
      "raan_deg": 270.7673,
      "arg_perigee_deg": 264.7395,
      "mean_anomaly_deg": 95.3302,
      "mean_motion_rev_day": 15.1106674
    },
    {
      "epoch": "2026-04-11T18:52:18.839424Z",
      "apogee_km": 533.7428670037707,
      "perigee_km": 532.0427536704265,
      "latitude_deg": -3.711627698319542e-05,
      "longitude_deg": 136.76764295555702,
      "height_km": 532.6841303380749,
      "semi_major_axis_km": 6911.029810337098,
      "eccentricity": 0.000123,
      "inclination_deg": 43.0008,
      "raan_deg": 259.847,
      "arg_perigee_deg": 269.1213,
      "mean_anomaly_deg": 90.9491,
      "mean_motion_rev_day": 15.11084019
    },
    {
      "epoch": "2026-04-13T07:21:36.669888Z",
      "apogee_km": 533.8830400027309,
      "perigee_km": 531.965635145234,
      "latitude_deg": -4.122245543874417e-05,
      "longitude_deg": -60.42527635140026,
      "height_km": 532.6724571437421,
      "semi_major_axis_km": 6911.061337573982,
      "eccentricity": 0.00013872,
      "inclination_deg": 43.0022,
      "raan_deg": 251.4769,
      "arg_perigee_deg": 271.8206,
      "mean_anomaly_deg": 88.248,
      "mean_motion_rev_day": 15.11073679
    }
  ]
}